UNKNOWN                 
1 81845U          25342.49161218  .00004611  00000+0  51100-3 0  9995
2 81845  97.6737 169.6576 0087182 319.8290  68.7122 14.85021855648895
UNKNOWN                 
1 81864U          25341.53968716  .00001421  00000+0  57685-3 0  9998
2 81864  65.6711  79.0167 0762831  15.3548 346.9300 13.32351453550148
UNKNOWN                 
1 81865U          25341.14775086  .00002329  00000+0  19150-2 0  9994
2 81865  82.8054  33.0042 0061590  22.1067   6.8865 13.87995543607772
UNKNOWN                 
1 81893U          25341.70631380  .00001726  00000+0  18052-2 0  9995
2 81893 100.0464 324.7364 0020239 283.5340  76.3553 13.76674846603387
UNKNOWN                 
1 81899U          25341.49453025  .00002381  00000+0  55382-2 0  9990
2 81899 102.4176  82.3586 0183501 224.4448 134.1810 13.20170406578299
UNKNOWN                 
1 81921U          25343.59876244  .00002428  00000+0  10052-2 0  9998
2 81921  65.7096  60.2662 0845232 115.9225 253.1373 13.15173823 25372
UNKNOWN                 
1 81946U          25342.79864878  .00000099  00000+0  49968-3 0  9997
2 81946  66.4150 160.2310 0672157 353.2715  27.8585 12.42574196547393
UNKNOWN                 
1 81947U          25341.27113692  .00009090  00000+0  86791-3 0  9996
2 81947  66.0725 183.4395 0377242 146.2267 216.3503 14.52538233630222
UNKNOWN                 
1 81964U          25343.52099005  .00000453  00000+0  38796-3 0  9992
2 81964  66.5849 266.7753 0028973  89.0830 271.3569 13.95792592613590
UNKNOWN                 
1 81969U          25342.51067382  .00013894  00000+0  83358-3 0  9995
2 81969  86.6856 155.2712 0003660 175.0483 185.0792 15.10836310439534
UNKNOWN                 
1 81995U          25341.15718739  .00006883  00000+0  12967-2 0  9999
2 81995  65.7447 138.6203 0520234 299.7729  55.2561 14.03687880603447
UNKNOWN                 
1 82043U          25340.36370747  .00005016  00000+0  13810-2 0  9994
2 82043  97.9277 129.5942 0232638 102.6968 260.0331 14.32515338572934
UNKNOWN                 
1 82051U          25340.98024424  .00009683  00000+0  32001-2 0  9996
2 82051  98.7481  66.3891 0092225 276.0868  82.9815 14.35789494571588
UNKNOWN                 
1 82073U          25343.48332551  .00004353  00000+0  11154-2 0  9996
2 82073  97.7531  59.9100 0206328 297.7274  60.3122 14.38807939574650
UNKNOWN                 
1 82139U          25340.63359094  .00004043  00000+0  20274-2 0  9993
2 82139  99.0267  48.4389 0082992  60.8065 300.1379 14.15383406479254
UNKNOWN                 
1 82162U          25342.06865844  .00004831  00000+0  71931-2 0  9994
2 82162 100.4792 266.2948 0052063 252.7711 106.7720 13.53505268503674
UNKNOWN                 
1 82180U          25317.17498021  .00042825  00000+0  55072-2 0  9990
2 82180  65.6558  11.9328 0326753 232.3485 124.7559 14.49940193597461
UNKNOWN                 
1 82189U          25338.90890005  .00000677  00000+0  24557-3 0  9995
2 82189  74.0359  62.6760 0017609 257.4334 102.4849 14.35201770631295
UNKNOWN                 
1 82199U          25342.44526122  .00000918  00000+0  78308-3 0  9997
2 82199  82.9668 237.1089 0038999  48.1178 131.2866 13.85770376609095
UNKNOWN                 
1 82205U          25343.29722282  .00005306  00000+0  14924-2 0  9993
2 82205  63.0102 255.1546 0494211 292.6353  62.3146 13.93294650607524
UNKNOWN                 
1 82223U          25343.65215851  .00003798  00000+0  20589-2 0  9999
2 82223  99.3158 229.4822 0070391 354.4657   5.5728 14.11814856448357
UNKNOWN                 
1 82250U          25336.20362593  .00004521  00000+0  23608-2 0  9998
2 82250  98.9074 241.7011 0069696 222.4711 293.9621 14.13685271615144
UNKNOWN                 
1 82272U          25341.28008124  .00000943  00000+0  30703-2 0  9991
2 82272  67.5231 210.6226 0753105 109.9461 258.4229 12.33548335271264
UNKNOWN                 
1 82295U          25340.22720821  .00002478  00000+0  88508-3 0  9996
2 82295  66.6187 165.3104 0127987 227.7771 131.2412 14.31301686578792
UNKNOWN                 
1 82303U          25341.07235454  .00037566  00000+0  32269-1 0  9990
2 82303  81.9343   8.0471 0030633   2.9874  27.7345 13.86230299513641
UNKNOWN                 
1 82311U          25342.39983804  .00001046  00000+0  15341-2 0  9991
2 82311  99.4342  36.4279 0108443 318.1362  41.1520 13.54533466549734
UNKNOWN                 
1 82363U          25342.35078306  .00000125  00000+0  29060-3 0  9997
2 82363  66.9356 203.3591 0456903 168.6512 192.5268 13.15605870289680
UNKNOWN                 
1 82369U          25337.30051655  .00000206  00000+0  16954-3 0  9998
2 82369  98.8991 352.6578 0083273   5.4067 354.7977 13.98158581555854
UNKNOWN                 
1 82381U          25343.59022975  .00032320  00000+0  42089-2 0  9992
2 82381  98.3903 208.2001 0007570 140.4442 219.7322 14.80498153510349
UNKNOWN                 
1 82402U          25342.51077057  .00009681  00000+0  70931-3 0  9990
2 82402  86.6662 157.4317 0007736 163.7616 196.3868 15.03406588453837
UNKNOWN                 
1 82410U          25339.32273370  .00000214  00000+0  28804-3 0  9995
2 82410  66.6579 356.8028 0056993  41.8292 318.7113 13.77237008585714
UNKNOWN                 
1 82432U          25340.76122057  .00003340  00000+0  70992-3 0  9992
2 82432  74.0066 351.9883 0055065 159.2335 201.1086 14.58526247482039
UNKNOWN                 
1 82448U          25342.62728350  .00009442  00000+0  68749-3 0  9990
2 82448  85.8736 201.5267 0006800 285.1011  74.9469 15.03641405436427
UNKNOWN                 
1 82453U          25342.15570275 -.00000003  00000+0  31854-3 0  9997
2 82453 102.1772 298.5281 0093315 215.6877 143.7923 12.39701749545495
UNKNOWN                 
1 82484U          25342.01950687  .00000308  00000+0  49883-3 0  9993
2 82484  99.3565   3.8883 0044597 206.4584 153.4277 13.55793213589991
UNKNOWN                 
1 82494U          25341.54802067  .00028853  00000+0  33143-2 0  9995
2 82494  74.0079  32.1643 0002720 217.5328 142.5662 14.85704970 84197
UNKNOWN                 
1 82500U          25340.83846275  .00005598  00000+0  25598-2 0  9999
2 82500  70.9689  16.3411 0114034 126.1243 235.0502 14.18449293618113
UNKNOWN                 
1 82524U          25343.56565122  .00006834  00000+0  21886-2 0  9997
2 82524  73.2806 187.8135 0135051 315.3035  73.8970 14.34655587576580
UNKNOWN                 
1 82529U          25339.98257390  .00000704  00000+0  11453-2 0  9997
2 82529  99.7920  63.5891 0237651 256.7588 281.7302 13.41093700588834
UNKNOWN                 
1 82560U          25337.12649323  .00002035  00000+0  16726-2 0  9994
2 82560  99.9869 278.9685 0012024 335.7988  38.9613 13.90598384610535
UNKNOWN                 
1 82597U          25339.53527414  .00002685  00000+0  90844-3 0  9992
2 82597  66.7683 166.9615 0097150 312.2045  47.0838 14.35694787627944
UNKNOWN                 
1 82617U          25341.48665845  .00001203  00000+0  31900-3 0  9996
2 82617  74.0274 253.4971 0039118 200.1283 159.8337 14.49387728636069
UNKNOWN                 
1 82627U          25334.74907958  .00000605  00000+0  15578-2 0  9999
2 82627  82.4750 257.1823 0009442 111.2198 279.4459 13.16273934577258
UNKNOWN                 
1 82642U          25337.47319889  .00003670  00000+0  20406-2 0  9990
2 82642  98.9738 248.0781 0135490 263.4998  95.0730 14.07154870614834
UNKNOWN                 
1 82683U          25343.16796511  .00001385  00000+0  53451-3 0  9997
2 82683  98.1743  52.3852 0211201  46.6972 315.1605 14.20114956461765
UNKNOWN                 
1 82693U          25342.61615978  .00004538  00000+0  52321-2 0  9991
2 82693 100.5309 305.7491 0044417  30.7359 329.6371 13.69472145553190
UNKNOWN                 
1 82698U          25340.78690934  .00002707  00000+0  16289-2 0  9996
2 82698  61.6105 166.4116 0684018 287.4092  65.3270 13.29401042537585
UNKNOWN                 
1 82708U          25343.53896649  .00000563  00000+0  23177-2 0  9997
2 82708 102.1665 186.3923 0064479 293.9658  65.4691 12.90551568523106
UNKNOWN                 
1 82729U          25340.90947018  .00000214  00000+0  85267-3 0  9997
2 82729  67.9644 155.9751 0831298  14.9841 347.4251 12.17748538534494
UNKNOWN                 
1 82739U          25342.71004326  .00003252  00000+0  27021-2 0  9993
2 82739  99.0864 139.1885 0173429 303.9705  69.1108 13.82682741605553
UNKNOWN                 
1 82741U          25343.55482966  .00003816  00000+0  41002-2 0  9990
2 82741 102.8452  17.9724 0203095 272.6210  85.1688 13.66000325596647
UNKNOWN                 
1 82783U          25343.11942608  .00000463  00000+0  13293-2 0  9998
2 82783  90.3414  38.0614 0025705 126.7488 233.6004 13.09017577503880
UNKNOWN                 
1 82798U          25338.38244633  .00004376  00000+0  19339-2 0  9994
2 82798  82.9514 198.4863 0028608 197.0141 339.5953 14.22853628311183
UNKNOWN                 
1 82820U          25341.72778917  .00006142  00000+0  21502-2 0  9997
2 82820  99.7876 141.8133 0048613  29.4215 330.9687 14.34880956624910
UNKNOWN                 
1 82854U          25336.01027073  .00002552  00000+0  20117-2 0  9992
2 82854  82.6891  73.0180 0126258 310.3434  48.6754 13.87721114606319
UNKNOWN                 
1 82873U          25343.45005194  .00006139  00000+0  26535-2 0  9994
2 82873  99.9955 237.1710 0040228 295.6729  64.0293 14.24380400620764
UNKNOWN                 
1 82875U          25341.66719099  .00001880  00000+0  49942-3 0  9999
2 82875  98.6751 325.1390 0377216 297.7082  58.6300 14.15137371543751
UNKNOWN                 
1 82893U          25343.60045251  .00011874  00000+0  44652-2 0  9993
2 82893  98.9619  98.5898 0022487  55.7170 304.6137 14.31519322423520
UNKNOWN                 
1 82912U          25342.81378551  .00005622  00000+0  23026-2 0  9995
2 82912  65.8347 183.3295 0776358 270.6325  80.5903 13.27650047578807
